{
    "links": {
        "self": "http://www.neowsapp.com/rest/v1/neo/3843492?api_key=iIulBulltgU6a56xZRHN4H3l9WmuAYTsLGpBGhQ2"
    },
    "id": "3843492",
    "neo_reference_id": "3843492",
    "name": "(2019 PX)",
    "designation": "2019 PX",
    "nasa_jpl_url": "http://ssd.jpl.nasa.gov/sbdb.cgi?sstr=3843492",
    "absolute_magnitude_h": 25.0,
    "estimated_diameter": {
        "kilometers": {
            "estimated_diameter_min": 0.02658,
            "estimated_diameter_max": 0.0594346868
        },
        "meters": {
            "estimated_diameter_min": 26.58,
            "estimated_diameter_max": 59.4346868419
        },
        "miles": {
            "estimated_diameter_min": 0.0165160412,
            "estimated_diameter_max": 0.0369309908
        },
        "feet": {
            "estimated_diameter_min": 87.2047272,
            "estimated_diameter_max": 194.9956979785
        }
    },
    "is_potentially_hazardous_asteroid": false,
    "close_approach_data": [
        {
            "close_approach_date": "1962-10-27",
            "close_approach_date_full": "1962-Oct-27 01:53",
            "epoch_date_close_approach": -226620420000,
            "relative_velocity": {
                "kilometers_per_second": "11.0266260964",
                "kilometers_per_hour": "39695.8539471149",
                "miles_per_hour": "24665.4599150837"
            },
            "miss_distance": {
                "astronomical": "0.0466143688",
                "lunar": "18.1329894632",
                "kilometers": "6973410.283874456",
                "miles": "4333076.2229852528"
            },
            "orbiting_body": "Earth"
        },
        {
            "close_approach_date": "2019-08-12",
            "close_approach_date_full": "2019-Aug-12 02:29",
            "epoch_date_close_approach": 1565576940000,
            "relative_velocity": {
                "kilometers_per_second": "12.0209858504",
                "kilometers_per_hour": "43275.54906131",
                "miles_per_hour": "26889.743248679"
            },
            "miss_distance": {
                "astronomical": "0.0501865728",
                "lunar": "19.5225768192",
                "kilometers": "7507804.393479936",
                "miles": "4665133.3250016768"
            },
            "orbiting_body": "Earth"
        },
        {
            "close_approach_date": "2057-10-28",
            "close_approach_date_full": "2057-Oct-28 20:18",
            "epoch_date_close_approach": 2771525880000,
            "relative_velocity": {
                "kilometers_per_second": "11.0748454521",
                "kilometers_per_hour": "39869.4436276453",
                "miles_per_hour": "24773.3217918555"
            },
            "miss_distance": {
                "astronomical": "0.0486034772",
                "lunar": "18.9067526308",
                "kilometers": "7270976.663713564",
                "miles": "4517975.3975286232"
            },
            "orbiting_body": "Earth"
        }
    ],
    "orbital_data": {
        "orbit_id": "2",
        "orbit_determination_date": "2019-08-16 05:29:42",
        "first_observation_date": "2019-07-25",
        "last_observation_date": "2019-08-11",
        "data_arc_in_days": 17,
        "observations_used": 25,
        "orbit_uncertainty": "8",
        "minimum_orbit_intersection": ".00515971",
        "jupiter_tisserand_invariant": "3.219",
        "epoch_osculation": "2458698.5",
        "eccentricity": ".6106663122919606",
        "semi_major_axis": "2.435885536478752",
        "inclination": "1.809466975880915",
        "ascending_node_longitude": "137.975087655393",
        "orbital_period": "1388.621042133356",
        "perihelion_distance": ".9483722987519484",
        "perihelion_argument": "222.8008799627327",
        "aphelion_distance": "3.923398774205554",
        "perihelion_time": "2458738.603752102435",
        "mean_anomaly": "349.6031024168435",
        "mean_motion": ".2592499962746693",
        "equinox": "J2000",
        "orbit_class": {
            "orbit_class_type": "APO",
            "orbit_class_description": "Near-Earth asteroid orbits which cross the Earth’s orbit similar to that of 1862 Apollo",
            "orbit_class_range": "a (semi-major axis) > 1.0 AU; q (perihelion) < 1.017 AU"
        }
    },
    "is_sentry_object": false
}